NORAD_CAT_ID,OBJECT_NAME,OBJECT_TYPE,EPOCH,MEAN_MOTION,ECCENTRICITY,INCLINATION,RA_OF_ASC_NODE,ARG_OF_PERICENTER,MEAN_ANOMALY,BSTAR,MEAN_MOTION_DOT,MEAN_MOTION_DDOT,TLE_LINE0,TLE_LINE1,TLE_LINE2,SEMIMAJOR_AXIS,PERIOD,APOGEE,PERIGEE,DECAYED
53542.0,STARLINK-4489,PAYLOAD,2022-12-15 19:51:49,15.08853011,0.0001968,53.2163,320.7232,39.4165,320.6971,0.00029911,4.477e-05,0.0,0 STARLINK-4489,1 53542U 22101R   22349.82765623  .00004477  00000-0  29911-3 0  9991,2 53542  53.2163 320.7232 0001968  39.4165 320.6971 15.08853011 18876,6917.840999999999,95.437,541.067,538.344,0.0
53542.0,STARLINK-4489,PAYLOAD,2022-12-16 13:21:03,15.08853981,0.0001814,53.2161,317.4521,34.7082,325.4028,0.00019789,2.864e-05,0.0,0 STARLINK-4489,1 53542U 22101R   22350.55629037  .00002864  00000-0  19789-3 0  9991,2 53542  53.2161 317.4521 0001814  34.7082 325.4028 15.08853981 18988,6917.8380000000025,95.437,540.9580000000002,538.448,0.0
53542.0,STARLINK-4489,PAYLOAD,2022-12-16 18:07:13,15.08848356,0.0001898,53.2159,316.5601,43.2672,316.8469,7.1342e-05,8.48e-06,0.0,0 STARLINK-4489,1 53542U 22101R   22350.75501170  .00000848  00000-0  71342-4 0  9994,2 53542  53.2159 316.5601 0001898  43.2672 316.8469 15.08848356 18327,6917.855,95.437,541.033,538.4069999999998,0.0
53542.0,STARLINK-4489,PAYLOAD,2022-12-16 21:17:59,15.0884144,0.0001608,53.2159,315.9652,47.6299,312.4829,-0.00021351,-3.685e-05,0.0,0 STARLINK-4489,1 53542U 22101R   22350.88749120 -.00003685  00000-0 -21351-3 0  9995,2 53542  53.2159 315.9652 0001608  47.6299 312.4829 15.08841440 19036,6917.876,95.437,540.8530000000002,538.629,0.0
53542.0,STARLINK-4489,PAYLOAD,2022-12-17 02:04:08,15.08837935,0.0001829,53.216,315.0732,46.0801,314.0342,-0.00013177,-2.385e-05,0.0,0 STARLINK-4489,1 53542U 22101R   22351.08621492 -.00002385  00000-0 -13177-3 0  9992,2 53542  53.2160 315.0732 0001829  46.0801 314.0342 15.08837935 18373,6917.887,95.438,541.0169999999998,538.486,0.0
53542.0,STARLINK-4489,PAYLOAD,2022-12-17 08:25:42,15.0882642,0.0001992,53.2159,313.8838,40.4226,319.6914,-0.00026905,-4.566e-05,0.0,0 STARLINK-4489,1 53542U 22101R   22351.35118197 -.00004566  00000-0 -26905-3 0  9991,2 53542  53.2159 313.8838 0001992  40.4226 319.6914 15.08826420 18412,6917.922,95.438,541.165,538.409,0.0
53542.0,STARLINK-4489,PAYLOAD,2022-12-17 10:01:05,15.08826184,0.0001965,53.216,313.5866,42.433,317.6814,-0.00026956,-4.574e-05,0.0,0 STARLINK-4489,1 53542U 22101R   22351.41742238 -.00004574  00000-0 -26956-3 0  9992,2 53542  53.2160 313.5866 0001965  42.4330 317.6814 15.08826184 19112,6917.9230000000025,95.438,541.1469999999998,538.428,0.0
53542.0,STARLINK-4489,PAYLOAD,2022-12-17 14:47:14,15.08824012,0.0001942,53.216,312.6946,43.9104,316.2043,-0.00026738,-4.539e-05,0.0,0 STARLINK-4489,1 53542U 22101R   22351.61614481 -.00004539  00000-0 -26738-3 0  9991,2 53542  53.2160 312.6946 0001942  43.9104 316.2043 15.08824012 19141,6917.929,95.439,541.138,538.451,0.0
53542.0,STARLINK-4489,PAYLOAD,2022-12-18 03:30:19,15.08835281,0.0001824,53.2159,310.3152,44.4004,315.7134,7.2312e-05,8.63e-06,0.0,0 STARLINK-4489,1 53542U 22101R   22352.14606451  .00000863  00000-0  72312-4 0  9992,2 53542  53.2159 310.3152 0001824  44.4004 315.7134 15.08835281 18534,6917.895,95.438,541.0219999999998,538.498,0.0
53542.0,STARLINK-4489,PAYLOAD,2022-12-18 08:16:29,15.08838885,0.0001895,53.2156,309.4233,45.099,315.0156,0.00059318,9.165e-05,0.0,0 STARLINK-4489,1 53542U 22101R   22352.34478717  .00009165  00000-0  59318-3 0  9990,2 53542  53.2156 309.4233 0001895  45.0990 315.0156 15.08838885 19259,6917.884,95.438,541.06,538.438,0.0
53542.0,STARLINK-4489,PAYLOAD,2022-12-18 20:59:35,15.08836182,0.0001879,53.2157,307.0443,44.2037,315.9105,0.00046316,7.09e-05,0.0,0 STARLINK-4489,1 53542U 22101R   22352.87471274  .00007090  00000-0  46316-3 0  9998,2 53542  53.2157 307.0443 0001879  44.2037 315.9105 15.08836182 19332,6917.892,95.438,541.057,538.457,0.0
53542.0,STARLINK-4489,PAYLOAD,2022-12-19 08:07:16,15.08859486,0.0001897,53.2156,304.9627,46.008,314.1068,0.0010994,0.00017262,0.0,0 STARLINK-4489,1 53542U 22101R   22353.33838847  .00017262  00000-0  10994-2 0  9997,2 53542  53.2156 304.9627 0001897  46.0080 314.1068 15.08859486 18711,6917.821,95.436,540.998,538.374,0.0
53542.0,STARLINK-4489,PAYLOAD,2022-12-19 14:28:49,15.08864116,0.0001905,53.2154,303.7729,45.3906,314.7242,0.0011185,0.0001757,0.0,0 STARLINK-4489,1 53542U 22101R   22353.60334606  .00017570  00000-0  11185-2 0  9996,2 53542  53.2154 303.7729 0001905  45.3906 314.7242 15.08864116 19445,6917.807,95.436,540.99,538.354,0.0
53542.0,STARLINK-4489,PAYLOAD,2022-12-20 03:11:53,15.08868998,0.0001941,53.216,301.3945,44.0652,316.0495,0.00061964,9.595e-05,0.0,0 STARLINK-4489,1 53542U 22101R   22354.13325735  .00009595  00000-0  61964-3 0  9997,2 53542  53.2160 301.3945 0001941  44.0652 316.0495 15.08868998 18839,6917.792,95.436,540.999,538.314,0.0
53542.0,STARLINK-4489,PAYLOAD,2022-12-21 01:27:17,15.08855044,0.0001931,53.2164,297.2308,49.1483,310.9677,0.00042499,6.485e-05,0.0,0 STARLINK-4489,1 53542U 22101R   22355.06061505  .00006485  00000-0  42499-3 0  9999,2 53542  53.2164 297.2308 0001931  49.1483 310.9677 15.08855044 18974,6917.834,95.437,541.035,538.364,0.0
53542.0,STARLINK-4489,PAYLOAD,2022-12-21 03:02:40,15.08828883,0.0001579,53.2161,296.9329,41.6285,318.4828,-0.00056894,-9.329e-05,0.0,0 STARLINK-4489,1 53542U 22101R   22355.12685260 -.00009329  00000-0 -56894-3 0  9992,2 53542  53.2161 296.9329 0001579  41.6285 318.4828 15.08828883 18988,6917.9140000000025,95.438,540.872,538.687,0.0
53542.0,STARLINK-4489,PAYLOAD,2022-12-22 02:53:28,15.08835645,0.0001541999999999,53.2174,292.4763,51.195,308.918,0.00069323,0.00010761,0.0,0 STARLINK-4489,1 53542U 22101R   22356.12046694  .00010761  00000-0  69323-3 0  9996,2 53542  53.2174 292.4763 0001542  51.1950 308.9180 15.08835645 19137,6917.894,95.438,540.825,538.692,0.0
53542.0,STARLINK-4489,PAYLOAD,2022-12-22 12:25:47,15.08845418,0.0001695,53.2173,290.6901,45.1698,314.9432,0.00073978,0.00011507,0.0,0 STARLINK-4489,1 53542U 22101R   22356.51790691  .00011507  00000-0  73978-3 0  9992,2 53542  53.2173 290.6901 0001695  45.1698 314.9432 15.08845418 19889,6917.864000000001,95.437,540.901,538.556,0.0
53542.0,STARLINK-4489,PAYLOAD,2022-12-23 04:19:39,15.08829867,0.0001749,53.2169,287.7139,43.487,316.626,0.00020083,2.909e-05,0.0,0 STARLINK-4489,1 53542U 22101R   22357.18031467  .00002909  00000-0  20083-3 0  9990,2 53542  53.2169 287.7139 0001749  43.4870 316.6260 15.08829867 19290,6917.911,95.438,540.986,538.566,0.0
53542.0,STARLINK-4489,PAYLOAD,2022-12-23 05:55:02,15.08831486,0.0001723,53.2168,287.4169,45.5726,314.5407,0.00021144,3.078e-05,0.0,0 STARLINK-4489,1 53542U 22101R   22357.24655427  .00003078  00000-0  21144-3 0  9992,2 53542  53.2168 287.4169 0001723  45.5726 314.5407 15.08831486 19991,6917.906,95.438,540.9630000000002,538.5790000000002,0.0
53542.0,STARLINK-4489,PAYLOAD,2022-12-24 12:07:22,15.08842905,0.0001897,53.2167,281.7686,49.7543,310.3615,0.0002833,4.224e-05,0.0,0 STARLINK-4489,1 53542U 22101R   22358.50511839  .00004224  00000-0  28330-3 0  9998,2 53542  53.2167 281.7686 0001897  49.7543 310.3615 15.08842905 19494,6917.871999999999,95.437,541.049,538.424,0.0
53542.0,STARLINK-4489,PAYLOAD,2022-12-24 18:28:54,15.08849658,0.0001835,53.2159,280.5776,48.8121,311.303,0.0003913,5.947e-05,0.0,0 STARLINK-4489,1 53542U 22101R   22358.77007595  .00005947  00000-0  39130-3 0  9999,2 53542  53.2159 280.5776 0001835  48.8121 311.3030 15.08849658 20223,6917.851,95.437,540.985,538.446,0.0
53542.0,STARLINK-4489,PAYLOAD,2022-12-25 04:01:12,15.08862361,0.0001838,53.2161,278.7946,49.6121,310.5032,0.00063441,9.829e-05,0.0,0 STARLINK-4489,1 53542U 22101R   22359.16751010  .00009829  00000-0  63441-3 0  9996,2 53542  53.2161 278.7946 0001838  49.6121 310.5032 15.08862361 19593,6917.812,95.436,540.9490000000002,538.406,0.0
53542.0,STARLINK-4489,PAYLOAD,2022-12-25 18:19:41,15.08841694,0.0001828,53.2154,276.1183,51.7573,308.3584,-7.509199999999999e-05,-1.483e-05,0.0,0 STARLINK-4489,1 53542U 22101R   22359.76367462 -.00001483  00000-0 -75092-4 0  9992,2 53542  53.2154 276.1183 0001828  51.7573 308.3584 15.08841694 19687,6917.875,95.437,541.005,538.476,0.0
53542.0,STARLINK-4489,PAYLOAD,2022-12-26 00:41:14,15.08832357,0.0001833,53.2155,274.9289,41.8133,318.2999,-0.00026716,-4.537e-05,0.0,0 STARLINK-4489,1 53542U 22101R   22360.02863731 -.00004537  00000-0 -26716-3 0  9994,2 53542  53.2155 274.9289 0001833  41.8133 318.2999 15.08832357 19720,6917.904,95.438,541.0369999999998,538.501,0.0
53542.0,STARLINK-4489,PAYLOAD,2022-12-26 02:16:37,15.08833587,0.0001869,53.2154,274.6308,50.4918,309.6239,-0.00019235,-3.348e-05,0.0,0 STARLINK-4489,1 53542U 22101R   22360.09487798 -.00003348  00000-0 -19235-3 0  9993,2 53542  53.2154 274.6308 0001869  50.4918 309.6239 15.08833587 20420,6917.9,95.438,541.058,538.472,0.0
53542.0,STARLINK-4489,PAYLOAD,2022-12-26 18:10:29,15.08840652,0.0001798,53.2167,271.657,49.8137,310.3012,0.00011157,1.488e-05,0.0,0 STARLINK-4489,1 53542U 22101R   22360.75728018  .00001488  00000-0  11157-3 0  9995,2 53542  53.2167 271.6570 0001798  49.8137 310.3012 15.08840652 19830,6917.878000000002,95.438,540.987,538.5,0.0
53542.0,STARLINK-4489,PAYLOAD,2022-12-27 11:39:43,15.08856647,0.0001942,53.2164,268.3863,51.5305,308.5861,0.00052228,8.038e-05,0.0,0 STARLINK-4489,1 53542U 22101R   22361.48591592  .00008038  00000-0  52228-3 0  9993,2 53542  53.2164 268.3863 0001942  51.5305 308.5861 15.08856647 20635,6917.83,95.437,541.038,538.351,0.0
53542.0,STARLINK-4489,PAYLOAD,2022-12-28 03:33:33,15.08866329,0.0001942,53.2161,265.4126,52.7479,307.369,0.00058145,8.984e-05,0.0,0 STARLINK-4489,1 53542U 22101R   22362.14830778  .00008984  00000-0  58145-3 0  9993,2 53542  53.2161 265.4126 0001942  52.7479 307.3690 15.08866329 20733,6917.8,95.436,541.008,538.321,0.0
